STARLINK-4495           
1 53552U 22101AB  26138.21846186  .00000201  00000+0  30724-4 0  9994
2 53552  53.2164 111.9957 0001221  93.2416 266.8715 15.08828004207456
STARLINK-4501           
1 53553U 22101AC  26138.21108516 -.00000224  00000+0  39948-5 0  9997
2 53553  53.2169 111.9006 0001276  78.2291 281.8845 15.08837807207464
STARLINK-4506           
1 53554U 22101AD  26138.21205860 -.00000338  00000+0 -31648-5 0  9994
2 53554  53.2176 112.0308 0001357  71.3353 288.7786 15.08839772206803
STARLINK-4504           
1 53555U 22101AE  26138.15590601 -.00000478  00000+0 -11955-4 0  9991
2 53555  53.2167 112.2735 0001370  76.3147 283.7998 15.08832967207452
STARLINK-4505           
1 53556U 22101AF  26138.20374223 -.00000435  00000+0 -92194-5 0  9996
2 53556  53.2174 112.0571 0001388  76.8003 283.3144 15.08838469206802
STARLINK-4502           
1 53557U 22101AG  26138.21478063 -.00000202  00000+0  53906-5 0  9994
2 53557  53.2164 112.0117 0001295  78.9282 281.1856 15.08837424207455
STARLINK-4494           
1 53558U 22101AH  26138.20600817 -.00000445  00000+0 -98691-5 0  9998
2 53558  53.2168 106.7724 0001279  84.4283 275.6855 15.08836227207535
STARLINK-4508           
1 53559U 22101AJ  26138.16668980  .01209268  00000+0  49684-2 0  9997
2 53559  53.2187 101.5265 0000870  86.2720 102.5654 15.82814329  5916
STARLINK-4564           
1 53560U 22101AK  26138.18261635  .00000528  00000+0  51268-4 0  9997
2 53560  53.2166 102.3391 0001473  88.7471 271.3689 15.08841579206937
STARLINK-4563           
1 53561U 22101AL  26138.20006830  .00000478  00000+0  48104-4 0  9994
2 53561  53.2177 112.0729 0001307  79.2205 280.8934 15.08841025206809
STARLINK-4565           
1 53562U 22101AM  26138.17891859 -.00000372  00000+0 -52745-5 0  9996
2 53562  53.2175 102.3121 0001442  89.4919 270.6239 15.08837407207592
STARLINK-4561           
1 53563U 22101AN  26138.18629032 -.00000603  00000+0 -19806-4 0  9997
2 53563  53.2168 102.3619 0001208  74.0373 286.0753 15.08833742206938
STARLINK-4577           
1 53564U 22101AP  26138.17154890 -.00002264  00000+0 -12423-3 0  9994
2 53564  53.2165 102.2729 0001476  83.3623 276.7537 15.08833871206934
STARLINK-4575           
1 53565U 22101AQ  26138.17987898 -.00000365  00000+0 -48639-5 0  9997
2 53565  53.2174 102.3180 0001356  82.4729 277.6417 15.08838007207597
STARLINK-4576           
1 53566U 22101AR  26138.16418220 -.00000085  00000+0  12768-4 0  9996
2 53566  53.2165 102.2253 0001309  76.8245 283.2893 15.08837452207624
STARLINK-4585           
1 53567U 22101AS  26138.17523545 -.00000131  00000+0  98830-5 0  9992
2 53567  53.2169 102.2898 0001431  89.0311 271.0845 15.08839101206938
STARLINK-4583           
1 53568U 22101AT  26138.15311000  .00001294  00000+0  99369-4 0  9999
2 53568  53.2161 102.1545 0001259  86.0645 274.0491 15.08852745207620
STARLINK-4582           
1 53569U 22101AU  26138.16788220  .00000814  00000+0  69201-4 0  9992
2 53569  53.2175 102.2442 0000900  93.8095 266.3000 15.08838782207603
STARLINK-4550           
1 53570U 22101AV  26138.15681343 -.00000249  00000+0  24174-5 0  9995
2 53570  53.2168 102.1792 0001402  87.2723 272.8430 15.08834929207627
STARLINK-4584           
1 53571U 22101AW  26138.16049350 -.00000079  00000+0  13095-4 0  9993
2 53571  53.2163 102.2000 0001230  68.8195 291.2929 15.08839092207627
STARLINK-4555           
1 53572U 22101AX  26138.20094399 -.00000385  00000+0 -61322-5 0  9990
2 53572  53.2171 101.7469 0001339  83.3440 276.7704 15.08834771206947
STARLINK-4559           
1 53574U 22101AZ  26138.13840316  .00000465  00000+0  47301-4 0  9999
2 53574  53.2167 102.0665 0001432  78.3404 281.7749 15.08840705206932
STARLINK-4551           
1 53575U 22101BA  26138.14576144 -.00000749  00000+0 -28964-4 0  9997
2 53575  53.2165 102.1107 0001286  79.8178 280.2959 15.08842875207628
STARLINK-4581           
1 53576U 22101BB  26138.14671802  .00000603  00000+0  55974-4 0  9993
2 53576  53.2161 102.1142 0001096  94.4249 265.6868 15.08834421207753
STARLINK-4553           
1 53577U 22101BC  26138.14207505 -.00000125  00000+0  10239-4 0  9994
2 53577  53.2173 102.0859 0001535  83.0902 277.0265 15.08835764207758
STARLINK-4556           
1 53578U 22101BD  26138.06477894 -.00000404  00000+0 -73164-5 0  9994
2 53578  53.2169 102.3189 0001370  76.8752 283.2393 15.08833164206924
STARLINK-4580           
1 53579U 22101BE  26138.19359161 -.00000901  00000+0 -38526-4 0  9999
2 53579  53.2161 101.6981 0001300  76.8285 283.2852 15.08826735206941
CHUANGXIN 16A (CX-16A)  
1 53586U 22102A   26138.16706450  .00001142  00000+0  66231-4 0  9992
2 53586  28.9941 162.4827 0004980  56.4920 303.6155 15.05820931204990
BEIJING-3B              
1 53587U 22103A   26138.20781491  .00000775  00000+0  91911-4 0  9991
2 53587  97.8011 216.1424 0025740 150.0300 210.2396 14.87111767202632
STARLINK-4691           
1 53588U 22104A   26138.12465480  .00000079  00000+0  23039-4 0  9994
2 53588  53.2165 292.6633 0001372  91.0171 269.0978 15.08831508206576
