OBJECT_NAME,OBJECT_ID,EPOCH,MEAN_MOTION,ECCENTRICITY,INCLINATION,RA_OF_ASC_NODE,ARG_OF_PERICENTER,MEAN_ANOMALY,EPHEMERIS_TYPE,CLASSIFICATION_TYPE,NORAD_CAT_ID,ELEMENT_SET_NO,REV_AT_EPOCH,BSTAR,MEAN_MOTION_DOT,MEAN_MOTION_DDOT
STARLINK-4495,2022-101AB,2026-05-18T05:14:35.104704,15.08828004,.0001221,53.2164,111.9957,93.2416,266.8715,0,U,53552,999,20745,.30724E-4,.201E-5,0
STARLINK-4501,2022-101AC,2026-05-18T05:03:57.757824,15.08837807,.0001276,53.2169,111.9006,78.2291,281.8845,0,U,53553,999,20746,.39948E-5,-.224E-5,0
STARLINK-4506,2022-101AD,2026-05-18T05:05:21.863040,15.08839772,.0001357,53.2176,112.0308,71.3353,288.7786,0,U,53554,999,20680,-.31648E-5,-.338E-5,0
STARLINK-4504,2022-101AE,2026-05-18T03:44:30.279264,15.08832967,.000137,53.2167,112.2735,76.3147,283.7998,0,U,53555,999,20745,-.11955E-4,-.478E-5,0
STARLINK-4505,2022-101AF,2026-05-18T04:53:23.328672,15.08838469,.0001388,53.2174,112.0571,76.8003,283.3144,0,U,53556,999,20680,-.92194E-5,-.435E-5,0
STARLINK-4502,2022-101AG,2026-05-18T05:09:17.046432,15.08837424,.0001295,53.2164,112.0117,78.9282,281.1856,0,U,53557,999,20745,.53906E-5,-.202E-5,0
STARLINK-4494,2022-101AH,2026-05-18T04:56:39.105888,15.08836227,.0001279,53.2168,106.7724,84.4283,275.6855,0,U,53558,999,20753,-.98691E-5,-.445E-5,0
STARLINK-4508,2022-101AJ,2026-05-18T04:00:01.998720,15.82814329,.000087,53.2187,101.5265,86.2720,102.5654,0,U,53559,999,591,.49684E-2,.1209268E-1,0
STARLINK-4564,2022-101AK,2026-05-18T04:22:58.052640,15.08841579,.0001473,53.2166,102.3391,88.7471,271.3689,0,U,53560,999,20693,.51268E-4,.528E-5,0
STARLINK-4563,2022-101AL,2026-05-18T04:48:05.901120,15.08841025,.0001307,53.2177,112.0729,79.2205,280.8934,0,U,53561,999,20680,.48104E-4,.478E-5,0
STARLINK-4565,2022-101AM,2026-05-18T04:17:38.566176,15.08837407,.0001442,53.2175,102.3121,89.4919,270.6239,0,U,53562,999,20759,-.52745E-5,-.372E-5,0
STARLINK-4561,2022-101AN,2026-05-18T04:28:15.483648,15.08833742,.0001208,53.2168,102.3619,74.0373,286.0753,0,U,53563,999,20693,-.19806E-4,-.603E-5,0
STARLINK-4577,2022-101AP,2026-05-18T04:07:01.824960,15.08833871,.0001476,53.2165,102.2729,83.3623,276.7537,0,U,53564,999,20693,-.12423E-3,-.2264E-4,0
STARLINK-4575,2022-101AQ,2026-05-18T04:19:01.543872,15.08838007,.0001356,53.2174,102.3180,82.4729,277.6417,0,U,53565,999,20759,-.48639E-5,-.365E-5,0
STARLINK-4576,2022-101AR,2026-05-18T03:56:25.342080,15.08837452,.0001309,53.2165,102.2253,76.8245,283.2893,0,U,53566,999,20762,.12768E-4,-.85E-6,0
STARLINK-4585,2022-101AS,2026-05-18T04:12:20.342880,15.08839101,.0001431,53.2169,102.2898,89.0311,271.0845,0,U,53567,999,20693,.9883E-5,-.131E-5,0
STARLINK-4583,2022-101AT,2026-05-18T03:40:28.704000,15.08852745,.0001259,53.2161,102.1545,86.0645,274.0491,0,U,53568,999,20762,.99369E-4,.1294E-4,0
STARLINK-4582,2022-101AU,2026-05-18T04:01:45.022080,15.08838782,.00009,53.2175,102.2442,93.8095,266.3000,0,U,53569,999,20760,.69201E-4,.814E-5,0
STARLINK-4550,2022-101AV,2026-05-18T03:45:48.680352,15.08834929,.0001402,53.2168,102.1792,87.2723,272.8430,0,U,53570,999,20762,.24174E-5,-.249E-5,0
STARLINK-4584,2022-101AW,2026-05-18T03:51:06.638400,15.08839092,.000123,53.2163,102.2000,68.8195,291.2929,0,U,53571,999,20762,.13095E-4,-.79E-6,0
STARLINK-4555,2022-101AX,2026-05-18T04:49:21.560736,15.08834771,.0001339,53.2171,101.7469,83.3440,276.7704,0,U,53572,999,20694,-.61322E-5,-.385E-5,0
STARLINK-4559,2022-101AZ,2026-05-18T03:19:18.033024,15.08840705,.0001432,53.2167,102.0665,78.3404,281.7749,0,U,53574,999,20693,.47301E-4,.465E-5,0
STARLINK-4551,2022-101BA,2026-05-18T03:29:53.788416,15.08842875,.0001286,53.2165,102.1107,79.8178,280.2959,0,U,53575,999,20762,-.28964E-4,-.749E-5,0
STARLINK-4581,2022-101BB,2026-05-18T03:31:16.436928,15.08834421,.0001096,53.2161,102.1142,94.4249,265.6868,0,U,53576,999,20775,.55974E-4,.603E-5,0
STARLINK-4553,2022-101BC,2026-05-18T03:24:35.284320,15.08835764,.0001535,53.2173,102.0859,83.0902,277.0265,0,U,53577,999,20775,.10239E-4,-.125E-5,0
STARLINK-4556,2022-101BD,2026-05-18T01:33:16.900416,15.08833164,.000137,53.2169,102.3189,76.8752,283.2393,0,U,53578,999,20692,-.73164E-5,-.404E-5,0
STARLINK-4580,2022-101BE,2026-05-18T04:38:46.315104,15.08826735,.00013,53.2161,101.6981,76.8285,283.2852,0,U,53579,999,20694,-.38526E-4,-.901E-5,0
CHUANGXIN 16A (CX-16A),2022-102A,2026-05-18T04:00:34.372800,15.05820931,.000498,28.9941,162.4827,56.4920,303.6155,0,U,53586,999,20499,.66231E-4,.1142E-4,0
BEIJING-3B,2022-103A,2026-05-18T04:59:15.208224,14.87111767,.002574,97.8011,216.1424,150.0300,210.2396,0,U,53587,999,20263,.91911E-4,.775E-5,0
STARLINK-4691,2022-104A,2026-05-18T02:59:30.174720,15.08831508,.0001372,53.2165,292.6633,91.0171,269.0978,0,U,53588,999,20657,.23039E-4,.79E-6,0
